{"type": "FeatureCollection", "features": [ {"type": "Feature", "properties": {"norad_id": 35594, "name": "COSMOS 2251 DEB", "group": "cosmos-2251-debris", "lat": -73.28776135619127, "lon": -4.512715168952491, "alt_km": 598.5973178232543, "timestamp": "2025-12-15T22:44:29.326611+00:00", "meta": {"OBJECT_NAME": "COSMOS 2251 DEB", "OBJECT_ID": "1993-036AMM", "EPOCH": "2025-12-11T07:49:43.768128", "MEAN_MOTION": 14.87869065, "ECCENTRICITY": 0.00302327, "INCLINATION": 73.8067, "RA_OF_ASC_NODE": 109.3962, "ARG_OF_PERICENTER": 220.7507, "MEAN_ANOMALY": 139.1411, "EPHEMERIS_TYPE": 0, "CLASSIFICATION_TYPE": "U", "NORAD_CAT_ID": 35594, "ELEMENT_SET_NO": 999, "REV_AT_EPOCH": 88164, "BSTAR": 0.003372362, "MEAN_MOTION_DOT": 0.00031222, "MEAN_MOTION_DDOT": 0}, "tle": {"line1": "1 35594U 93036AMM 25345.32620102  .00031222  00000+0  33724-2 0  9992", "line2": "2 35594  73.8067 109.3962 0030232 220.7507 139.1411 14.87869065881643"}}, "geometry": {"type": "Point", "coordinates": [-4.512715168952491, -73.28776135619127]}}, {"type": "Feature", "properties": {"norad_id": 35602, "name": "COSMOS 2251 DEB", "group": "cosmos-2251-debris", "lat": -17.682839835100744, "lon": 0.5639739777679263, "alt_km": 419.3163472722772, "timestamp": "2025-12-15T22:44:29.326621+00:00", "meta": {"OBJECT_NAME": "COSMOS 2251 DEB", "OBJECT_ID": "1993-036AMV", "EPOCH": "2025-12-15T07:00:30.141792", "MEAN_MOTION": 15.35177591, "ECCENTRICITY": 0.00895998, "INCLINATION": 73.9936, "RA_OF_ASC_NODE": 176.7224, "ARG_OF_PERICENTER": 241.9585, "MEAN_ANOMALY": 295.6288, "EPHEMERIS_TYPE": 0, "CLASSIFICATION_TYPE": "U", "NORAD_CAT_ID": 35602, "ELEMENT_SET_NO": 999, "REV_AT_EPOCH": 90130, "BSTAR": 0.00036123877, "MEAN_MOTION_DOT": 0.00014053, "MEAN_MOTION_DDOT": 0}, "tle": {"line1": "1 35602U 93036AMV 25349.29201553  .00014053  00000+0  36124-3 0  9998", "line2": "2 35602  73.9936 176.7224 0089599 241.9585 295.6288 15.35177591901305"}}, "geometry": {"type": "Point", "coordinates": [0.5639739777679263, -17.682839835100744]}}, {"type": "Feature", "properties": {"norad_id": 35605, "name": "COSMOS 2251 DEB", "group": "cosmos-2251-debris", "lat": -62.659113561613786, "lon": -176.29454571246748, "alt_km": 446.88191889624795, "timestamp": "2025-12-15T22:44:29.326631+00:00", "meta": {"OBJECT_NAME": "COSMOS 2251 DEB", "OBJECT_ID": "1993-036AMY", "EPOCH": "2025-12-13T05:33:00.611712", "MEAN_MOTION": 15.34448038, "ECCENTRICITY": 0.00255309, "INCLINATION": 73.8715, "RA_OF_ASC_NODE": 335.5566, "ARG_OF_PERICENTER": 266.9711, "MEAN_ANOMALY": 92.8571, "EPHEMERIS_TYPE": 0, "CLASSIFICATION_TYPE": "U", "NORAD_CAT_ID": 35605, "ELEMENT_SET_NO": 999, "REV_AT_EPOCH": 65979, "BSTAR": 0.010289697, "MEAN_MOTION_DOT": 0.0036361, "MEAN_MOTION_DDOT": 0}, "tle": {"line1": "1 35605U 93036AMY 25347.23125708  .00363610  00000+0  10290-1 0  9990", "line2": "2 35605  73.8715 335.5566 0025530 266.9711  92.8571 15.34448038659790"}}, "geometry": {"type": "Point", "coordinates": [-176.29454571246748, -62.659113561613786]}}, {"type": "Feature", "properties": {"norad_id": 35606, "name": "COSMOS 2251 DEB", "group": "cosmos-2251-debris", "lat": -24.34478057901301, "lon": -166.76297908093323, "alt_km": 769.0246404513819, "timestamp": "2025-12-15T22:44:29.326641+00:00", "meta": {"OBJECT_NAME": "COSMOS 2251 DEB", "OBJECT_ID": "1993-036AMZ", "EPOCH": "2025-12-15T07:23:01.893984", "MEAN_MOTION": 13.41214459, "ECCENTRICITY": 0.04573982, "INCLINATION": 73.8103, "RA_OF_ASC_NODE": 6.7036, "ARG_OF_PERICENTER": 212.0605, "MEAN_ANOMALY": 145.1917, "EPHEMERIS_TYPE": 0, "CLASSIFICATION_TYPE": "U", "NORAD_CAT_ID": 35606, "ELEMENT_SET_NO": 999, "REV_AT_EPOCH": 61074, "BSTAR": 0.00058042329, "MEAN_MOTION_DOT": 5.74e-06, "MEAN_MOTION_DDOT": 0}, "tle": {"line1": "1 35606U 93036AMZ 25349.30766081  .00000574  00000+0  58042-3 0  9992", "line2": "2 35606  73.8103   6.7036 0457398 212.0605 145.1917 13.41214459610748"}}, "geometry": {"type": "Point", "coordinates": [-166.76297908093323, -24.34478057901301]}}, {"type": "Feature", "properties": {"norad_id": 35611, "name": "COSMOS 2251 DEB", "group": "cosmos-2251-debris", "lat": 47.00662550712673, "lon": -169.05091374043013, "alt_km": 661.7765758591595, "timestamp": "2025-12-15T22:44:29.326651+00:00", "meta": {"OBJECT_NAME": "COSMOS 2251 DEB", "OBJECT_ID": "1993-036ANE", "EPOCH": "2025-12-14T22:03:55.318464", "MEAN_MOTION": 14.72918088, "ECCENTRICITY": 0.00215588, "INCLINATION": 74.0194, "RA_OF_ASC_NODE": 175.0515, "ARG_OF_PERICENTER": 247.96, "MEAN_ANOMALY": 111.9283, "EPHEMERIS_TYPE": 0, "CLASSIFICATION_TYPE": "U", "NORAD_CAT_ID": 35611, "ELEMENT_SET_NO": 999, "REV_AT_EPOCH": 87322, "BSTAR": 0.0014598859, "MEAN_MOTION_DOT": 9.374e-05, "MEAN_MOTION_DDOT": 0}, "tle": {"line1": "1 35611U 93036ANE 25348.91939026  .00009374  00000+0  14599-2 0  9990", "line2": "2 35611  74.0194 175.0515 0021558 247.9600 111.9283 14.72918088873221"}}, "geometry": {"type": "Point", "coordinates": [-169.05091374043013, 47.00662550712673]}}, {"type": "Feature", "properties": {"norad_id": 35614, "name": "COSMOS 2251 DEB", "group": "cosmos-2251-debris", "lat": 70.68712128869686, "lon": 86.06087745023987, "alt_km": 648.2642875471565, "timestamp": "2025-12-15T22:44:29.326661+00:00", "meta": {"OBJECT_NAME": "COSMOS 2251 DEB", "OBJECT_ID": "1993-036ANH", "EPOCH": "2025-12-13T06:27:06.231168", "MEAN_MOTION": 14.67025191, "ECCENTRICITY": 0.00756959, "INCLINATION": 73.9589, "RA_OF_ASC_NODE": 326.4366, "ARG_OF_PERICENTER": 180.7813, "MEAN_ANOMALY": 179.3251, "EPHEMERIS_TYPE": 0, "CLASSIFICATION_TYPE": "U", "NORAD_CAT_ID": 35614, "ELEMENT_SET_NO": 999, "REV_AT_EPOCH": 87737, "BSTAR": 0.0013853104, "MEAN_MOTION_DOT": 8.085e-05, "MEAN_MOTION_DDOT": 0}, "tle": {"line1": "1 35614U 93036ANH 25347.26882212  .00008085  00000+0  13853-2 0  9994", "line2": "2 35614  73.9589 326.4366 0075695 180.7813 179.3251 14.67025191877378"}}, "geometry": {"type": "Point", "coordinates": [86.06087745023987, 70.68712128869686]}}, {"type": "Feature", "properties": {"norad_id": 35645, "name": "COSMOS 2251 DEB", "group": "cosmos-2251-debris", "lat": -60.785152171325095, "lon": 50.77347058435725, "alt_km": 718.6372950434943, "timestamp": "2025-12-15T22:44:29.326671+00:00", "meta": {"OBJECT_NAME": "COSMOS 2251 DEB", "OBJECT_ID": "1993-036ANL", "EPOCH": "2025-12-15T06:26:03.005376", "MEAN_MOTION": 14.45625308, "ECCENTRICITY": 0.00696354, "INCLINATION": 73.9644, "RA_OF_ASC_NODE": 82.996, "ARG_OF_PERICENTER": 240.4421, "MEAN_ANOMALY": 118.9784, "EPHEMERIS_TYPE": 0, "CLASSIFICATION_TYPE": "U", "NORAD_CAT_ID": 35645, "ELEMENT_SET_NO": 999, "REV_AT_EPOCH": 86808, "BSTAR": 0.0013484506, "MEAN_MOTION_DOT": 4.886e-05, "MEAN_MOTION_DDOT": 0}, "tle": {"line1": "1 35645U 93036ANL 25349.26809034  .00004886  00000+0  13485-2 0  9997", "line2": "2 35645  73.9644  82.9960 0069635 240.4421 118.9784 14.45625308868084"}}, "geometry": {"type": "Point", "coordinates": [50.77347058435725, -60.785152171325095]}}, {"type": "Feature", "properties": {"norad_id": 35646, "name": "COSMOS 2251 DEB", "group": "cosmos-2251-debris", "lat": 72.52965190953958, "lon": 117.76016099152301, "alt_km": 1009.360555558681, "timestamp": "2025-12-15T22:44:29.326682+00:00", "meta": {"OBJECT_NAME": "COSMOS 2251 DEB", "OBJECT_ID": "1993-036ANM", "EPOCH": "2025-12-14T22:06:49.108608", "MEAN_MOTION": 13.40825334, "ECCENTRICITY": 0.04567252, "INCLINATION": 73.8726, "RA_OF_ASC_NODE": 52.5668, "ARG_OF_PERICENTER": 162.3902, "MEAN_ANOMALY": 14.4597, "EPHEMERIS_TYPE": 0, "CLASSIFICATION_TYPE": "U", "NORAD_CAT_ID": 35646, "ELEMENT_SET_NO": 999, "REV_AT_EPOCH": 81887, "BSTAR": 0.00057882539, "MEAN_MOTION_DOT": 5.7e-06, "MEAN_MOTION_DDOT": 0}, "tle": {"line1": "1 35646U 93036ANM 25348.92140172  .00000570  00000+0  57883-3 0  9998", "line2": "2 35646  73.8726  52.5668 0456725 162.3902  14.4597 13.40825334818878"}}, "geometry": {"type": "Point", "coordinates": [117.76016099152301, 72.52965190953958]}}, {"type": "Feature", "properties": {"norad_id": 35647, "name": "COSMOS 2251 DEB", "group": "cosmos-2251-debris", "lat": -17.156278075983664, "lon": -76.47572491975721, "alt_km": 727.8356046186591, "timestamp": "2025-12-15T22:44:29.326692+00:00", "meta": {"OBJECT_NAME": "COSMOS 2251 DEB", "OBJECT_ID": "1993-036ANN", "EPOCH": "2025-12-14T13:33:39.686688", "MEAN_MOTION": 14.43645909, "ECCENTRICITY": 0.00456042, "INCLINATION": 74.0231, "RA_OF_ASC_NODE": 291.1692, "ARG_OF_PERICENTER": 29.8407, "MEAN_ANOMALY": 330.5335, "EPHEMERIS_TYPE": 0, "CLASSIFICATION_TYPE": "U", "NORAD_CAT_ID": 35647, "ELEMENT_SET_NO": 999, "REV_AT_EPOCH": 67690, "BSTAR": 0.00083775206, "MEAN_MOTION_DOT": 2.853e-05, "MEAN_MOTION_DDOT": 0}, "tle": {"line1": "1 35647U 93036ANN 25348.56504267  .00002853  00000+0  83775-3 0  9993", "line2": "2 35647  74.0231 291.1692 0045604  29.8407 330.5335 14.43645909676908"}}, "geometry": {"type": "Point", "coordinates": [-76.47572491975721, -17.156278075983664]}}, {"type": "Feature", "properties": {"norad_id": 35650, "name": "COSMOS 2251 DEB", "group": "cosmos-2251-debris", "lat": -69.02025009932416, "lon": -119.2291542220474, "alt_km": 634.3381447999054, "timestamp": "2025-12-15T22:44:29.326702+00:00", "meta": {"OBJECT_NAME": "COSMOS 2251 DEB", "OBJECT_ID": "1993-036ANR", "EPOCH": "2025-12-15T04:06:36.977184", "MEAN_MOTION": 14.83695783, "ECCENTRICITY": 0.00146791, "INCLINATION": 74.0467, "RA_OF_ASC_NODE": 14.0629, "ARG_OF_PERICENTER": 60.1172, "MEAN_ANOMALY": 11.3781, "EPHEMERIS_TYPE": 0, "CLASSIFICATION_TYPE": "U", "NORAD_CAT_ID": 35650, "ELEMENT_SET_NO": 999, "REV_AT_EPOCH": 87670, "BSTAR": 0.00097017468, "MEAN_MOTION_DOT": 8.008e-05, "MEAN_MOTION_DDOT": 0}, "tle": {"line1": "1 35650U 93036ANR 25349.17126131  .00008008  00000+0  97017-3 0  9997", "line2": "2 35650  74.0467  14.0629 0014679  60.1172  11.3781 14.83695783876708"}}, "geometry": {"type": "Point", "coordinates": [-119.2291542220474, -69.02025009932416]}}]}